start=new Date('2022-12-21T00:00:00.000Z').valueOf();
sats=[{"NORAD_CAT_ID":"53474","LAUNCH_DATE":"2022-08-12","GP_ID":"221048466","TIME_SYSTEM":"UTC","FILE":"3714319","REF_FRAME":"TEME","MEAN_MOTION":"15.01263815","MEAN_MOTION_DDOT":"0.0000000000000","CENTER_NAME":"EARTH","TLE_LINE2":"2 53474  97.6590 113.5202 0001826  43.4185 316.7183 15.01263815 19963","MEAN_MOTION_DOT":"0.00003119","BSTAR":"0.00024730000000","EPOCH":"2022-12-20T21:23:00.665088","EPHEMERIS_TYPE":"0","MEAN_ANOMALY":"316.7183","DECAY_DATE":null,"RA_OF_ASC_NODE":"113.5202","OBJECT_NAME":"STARLINK-4445","ELEMENT_SET_NO":"999","ECCENTRICITY":"0.00018260","OBJECT_TYPE":"PAYLOAD","CLASSIFICATION_TYPE":"U","PERIAPSIS":"561.733","APOAPSIS":"564.268","INCLINATION":"97.6590","ARG_OF_PERICENTER":"43.4185","SITE":"AFWTR","RCS_SIZE":"LARGE","COUNTRY_CODE":"US","PERIOD":"95.919","TLE_LINE1":"1 53474U 22099K   22354.89097992  .00003119  00000-0  24730-3 0  9997","SEMIMAJOR_AXIS":"6941.135","REV_AT_EPOCH":"1996","OBJECT_ID":"2022-099K","MEAN_ELEMENT_THEORY":"SGP4"},{"MEAN_MOTION":"15.01256236","REF_FRAME":"TEME","TIME_SYSTEM":"UTC","FILE":"3714314","GP_ID":"221048541","NORAD_CAT_ID":"53475","LAUNCH_DATE":"2022-08-12","RA_OF_ASC_NODE":"113.4417","DECAY_DATE":null,"MEAN_ANOMALY":"268.7944","EPHEMERIS_TYPE":"0","BSTAR":"0.00013093000000","MEAN_MOTION_DOT":"0.00001623","EPOCH":"2022-12-20T19:54:42.517728","TLE_LINE2":"2 53475  97.6594 113.4417 0001113  91.3408 268.7944 15.01256236 19953","CENTER_NAME":"EARTH","MEAN_MOTION_DDOT":"0.0000000000000","INCLINATION":"97.6594","APOAPSIS":"563.796","PERIAPSIS":"562.251","CLASSIFICATION_TYPE":"U","OBJECT_TYPE":"PAYLOAD","ECCENTRICITY":"0.00011130","ELEMENT_SET_NO":"999","OBJECT_NAME":"STARLINK-4389","MEAN_ELEMENT_THEORY":"SGP4","OBJECT_ID":"2022-099L","REV_AT_EPOCH":"1995","SEMIMAJOR_AXIS":"6941.158","TLE_LINE1":"1 53475U 22099L   22354.82965877  .00001623  00000-0  13093-3 0  9995","PERIOD":"95.920","COUNTRY_CODE":"US","RCS_SIZE":"LARGE","ARG_OF_PERICENTER":"91.3408","SITE":"AFWTR"},{"PERIAPSIS":"561.882","APOAPSIS":"564.126","INCLINATION":"97.6561","CLASSIFICATION_TYPE":"U","OBJECT_NAME":"STARLINK-4378","ELEMENT_SET_NO":"999","ECCENTRICITY":"0.00016170","OBJECT_TYPE":"PAYLOAD","MEAN_ELEMENT_THEORY":"SGP4","SEMIMAJOR_AXIS":"6941.139","OBJECT_ID":"2022-099M","REV_AT_EPOCH":"1996","RCS_SIZE":"LARGE","COUNTRY_CODE":"US","TLE_LINE1":"1 53476U 22099M   22354.89999749  .00000142  00000-0  15645-4 0  9999","PERIOD":"95.919","SITE":"AFWTR","ARG_OF_PERICENTER":"125.4003","MEAN_MOTION":"15.01262569","REF_FRAME":"TEME","TIME_SYSTEM":"UTC","FILE":"3714314","NORAD_CAT_ID":"53476","LAUNCH_DATE":"2022-08-12","GP_ID":"221048389","DECAY_DATE":null,"RA_OF_ASC_NODE":"113.5102","MEAN_MOTION_DOT":"0.00000142","EPOCH":"2022-12-20T21:35:59.783136","BSTAR":"0.00001564500000","EPHEMERIS_TYPE":"0","MEAN_ANOMALY":"234.7372","MEAN_MOTION_DDOT":"0.0000000000000","CENTER_NAME":"EARTH","TLE_LINE2":"2 53476  97.6561 113.5102 0001617 125.4003 234.7372 15.01262569 19964"},{"ELEMENT_SET_NO":"999","ECCENTRICITY":"0.00010040","OBJECT_NAME":"STARLINK-4412","OBJECT_TYPE":"PAYLOAD","CLASSIFICATION_TYPE":"U","PERIAPSIS":"562.440","INCLINATION":"97.6616","APOAPSIS":"563.834","ARG_OF_PERICENTER":"60.2765","SITE":"AFWTR","COUNTRY_CODE":"US","RCS_SIZE":"LARGE","PERIOD":"95.922","TLE_LINE1":"1 53477U 22099N   22354.82594402  .00009309  00000-0  72920-3 0  9992","SEMIMAJOR_AXIS":"6941.272","OBJECT_ID":"2022-099N","REV_AT_EPOCH":"1995","MEAN_ELEMENT_THEORY":"SGP4","NORAD_CAT_ID":"53477","LAUNCH_DATE":"2022-08-12","GP_ID":"221048402","TIME_SYSTEM":"UTC","FILE":"3714314","REF_FRAME":"TEME","MEAN_MOTION":"15.01219395","CENTER_NAME":"EARTH","MEAN_MOTION_DDOT":"0.0000000000000","TLE_LINE2":"2 53477  97.6616 113.4464 0001004  60.2765 299.8559 15.01219395 19954","EPHEMERIS_TYPE":"0","EPOCH":"2022-12-20T19:49:21.563328","MEAN_MOTION_DOT":"0.00009309","BSTAR":"0.00072920000000","MEAN_ANOMALY":"299.8559","DECAY_DATE":null,"RA_OF_ASC_NODE":"113.4464"},{"MEAN_MOTION_DOT":"0.00001493","EPOCH":"2022-12-20T19:57:42.439680","BSTAR":"0.00012083000000","EPHEMERIS_TYPE":"0","MEAN_ANOMALY":"273.5362","MEAN_MOTION_DDOT":"0.0000000000000","CENTER_NAME":"EARTH","TLE_LINE2":"2 53478  97.6564 113.4430 0000904  86.5966 273.5362 15.01261359 19950","DECAY_DATE":null,"RA_OF_ASC_NODE":"113.4430","FILE":"3714315","TIME_SYSTEM":"UTC","LAUNCH_DATE":"2022-08-12","NORAD_CAT_ID":"53478","GP_ID":"221048549","MEAN_MOTION":"15.01261359","REF_FRAME":"TEME","RCS_SIZE":"LARGE","COUNTRY_CODE":"US","PERIOD":"95.919","TLE_LINE1":"1 53478U 22099P   22354.83174120  .00001493  00000-0  12083-3 0  9995","ARG_OF_PERICENTER":"86.5966","SITE":"AFWTR","MEAN_ELEMENT_THEORY":"SGP4","SEMIMAJOR_AXIS":"6941.143","OBJECT_ID":"2022-099P","REV_AT_EPOCH":"1995","CLASSIFICATION_TYPE":"U","OBJECT_NAME":"STARLINK-4433","ELEMENT_SET_NO":"999","ECCENTRICITY":"0.00009040","OBJECT_TYPE":"PAYLOAD","PERIAPSIS":"562.380","APOAPSIS":"563.635","INCLINATION":"97.6564"},{"MEAN_ELEMENT_THEORY":"SGP4","OBJECT_ID":"2022-099Q","REV_AT_EPOCH":"1964","SEMIMAJOR_AXIS":"6941.120","TLE_LINE1":"1 53479U 22099Q   22354.35751545  .00002940  00000-0  23335-3 0  9995","PERIOD":"95.919","COUNTRY_CODE":"US","RCS_SIZE":"LARGE","ARG_OF_PERICENTER":"93.6793","SITE":"AFWTR","INCLINATION":"97.6598","APOAPSIS":"563.653","PERIAPSIS":"562.316","CLASSIFICATION_TYPE":"U","OBJECT_TYPE":"PAYLOAD","ECCENTRICITY":"0.00009630","ELEMENT_SET_NO":"999","OBJECT_NAME":"STARLINK-4436","RA_OF_ASC_NODE":"112.9932","DECAY_DATE":null,"MEAN_ANOMALY":"266.4542","EPHEMERIS_TYPE":"0","MEAN_MOTION_DOT":"0.00002940","BSTAR":"0.00023335000000","EPOCH":"2022-12-20T08:34:49.334880","TLE_LINE2":"2 53479  97.6598 112.9932 0000963  93.6793 266.4542 15.01268837 19646","CENTER_NAME":"EARTH","MEAN_MOTION_DDOT":"0.0000000000000","MEAN_MOTION":"15.01268837","REF_FRAME":"TEME","TIME_SYSTEM":"UTC","FILE":"3713130","GP_ID":"221029642","NORAD_CAT_ID":"53479","LAUNCH_DATE":"2022-08-12"},{"GP_ID":"221048410","NORAD_CAT_ID":"53480","LAUNCH_DATE":"2022-08-12","FILE":"3714315","TIME_SYSTEM":"UTC","REF_FRAME":"TEME","MEAN_MOTION":"15.01262625","TLE_LINE2":"2 53480  97.6593 113.4429 0001881  51.8403 308.2990 15.01262625 19959","CENTER_NAME":"EARTH","MEAN_MOTION_DDOT":"0.0000000000000","MEAN_ANOMALY":"308.2990","EPHEMERIS_TYPE":"0","MEAN_MOTION_DOT":"0.00000920","BSTAR":"0.00007617200000","EPOCH":"2022-12-20T19:52:01.032672","RA_OF_ASC_NODE":"113.4429","DECAY_DATE":null,"OBJECT_TYPE":"PAYLOAD","ECCENTRICITY":"0.00018810","ELEMENT_SET_NO":"999","OBJECT_NAME":"STARLINK-4442","CLASSIFICATION_TYPE":"U","INCLINATION":"97.6593","APOAPSIS":"564.309","PERIAPSIS":"561.698","ARG_OF_PERICENTER":"51.8403","SITE":"AFWTR","PERIOD":"95.919","TLE_LINE1":"1 53480U 22099R   22354.82778973  .00000920  00000-0  76172-4 0  9997","COUNTRY_CODE":"US","RCS_SIZE":"LARGE","OBJECT_ID":"2022-099R","REV_AT_EPOCH":"1995","SEMIMAJOR_AXIS":"6941.139","MEAN_ELEMENT_THEORY":"SGP4"},{"CLASSIFICATION_TYPE":"U","ELEMENT_SET_NO":"999","ECCENTRICITY":"0.00016680","OBJECT_NAME":"STARLINK-4302","OBJECT_TYPE":"PAYLOAD","PERIAPSIS":"561.835","INCLINATION":"97.6600","APOAPSIS":"564.151","COUNTRY_CODE":"US","RCS_SIZE":"LARGE","PERIOD":"95.919","TLE_LINE1":"1 53481U 22099S   22354.82223171  .00001866  00000-0  14985-3 0  9996","SITE":"AFWTR","ARG_OF_PERICENTER":"50.7579","MEAN_ELEMENT_THEORY":"SGP4","SEMIMAJOR_AXIS":"6941.128","REV_AT_EPOCH":"1995","OBJECT_ID":"2022-099S","FILE":"3714315","TIME_SYSTEM":"UTC","LAUNCH_DATE":"2022-08-12","NORAD_CAT_ID":"53481","GP_ID":"221048554","MEAN_MOTION":"15.01266036","REF_FRAME":"TEME","EPHEMERIS_TYPE":"0","MEAN_MOTION_DOT":"0.00001866","EPOCH":"2022-12-20T19:44:00.819744","BSTAR":"0.00014985000000","MEAN_ANOMALY":"309.3793","CENTER_NAME":"EARTH","MEAN_MOTION_DDOT":"0.0000000000000","TLE_LINE2":"2 53481  97.6600 113.4550 0001668  50.7579 309.3793 15.01266036 19952","DECAY_DATE":null,"RA_OF_ASC_NODE":"113.4550"},{"PERIAPSIS":"561.756","APOAPSIS":"564.198","INCLINATION":"97.6595","CLASSIFICATION_TYPE":"U","OBJECT_NAME":"STARLINK-4360","ELEMENT_SET_NO":"999","ECCENTRICITY":"0.00017590","OBJECT_TYPE":"PAYLOAD","MEAN_ELEMENT_THEORY":"SGP4","SEMIMAJOR_AXIS":"6941.112","OBJECT_ID":"2022-099T","REV_AT_EPOCH":"1995","RCS_SIZE":"LARGE","COUNTRY_CODE":"US","PERIOD":"95.919","TLE_LINE1":"1 53482U 22099T   22354.82248088 -.00000101  00000-0 -32268-5 0  9990","SITE":"AFWTR","ARG_OF_PERICENTER":"52.3386","MEAN_MOTION":"15.01271307","REF_FRAME":"TEME","FILE":"3714315","TIME_SYSTEM":"UTC","NORAD_CAT_ID":"53482","LAUNCH_DATE":"2022-08-12","GP_ID":"221048550","DECAY_DATE":null,"RA_OF_ASC_NODE":"113.4547","BSTAR":"-0.00000322680000","MEAN_MOTION_DOT":"-0.00000101","EPOCH":"2022-12-20T19:44:22.348032","EPHEMERIS_TYPE":"0","MEAN_ANOMALY":"307.7998","MEAN_MOTION_DDOT":"0.0000000000000","CENTER_NAME":"EARTH","TLE_LINE2":"2 53482  97.6595 113.4547 0001759  52.3386 307.7998 15.01271307 19953"},{"RA_OF_ASC_NODE":"113.4593","DECAY_DATE":null,"TLE_LINE2":"2 53483  97.6568 113.4593 0001311 346.2255  13.8933 15.01256444 19958","MEAN_MOTION_DDOT":"0.0000000000000","CENTER_NAME":"EARTH","MEAN_ANOMALY":"13.8933","BSTAR":"0.00004689900000","MEAN_MOTION_DOT":"0.00000543","EPOCH":"2022-12-20T19:36:23.594400","EPHEMERIS_TYPE":"0","REF_FRAME":"TEME","MEAN_MOTION":"15.01256444","GP_ID":"221048411","LAUNCH_DATE":"2022-08-12","NORAD_CAT_ID":"53483","TIME_SYSTEM":"UTC","FILE":"3714315","REV_AT_EPOCH":"1995","OBJECT_ID":"2022-099U","SEMIMAJOR_AXIS":"6941.158","MEAN_ELEMENT_THEORY":"SGP4","ARG_OF_PERICENTER":"346.2255","SITE":"AFWTR","PERIOD":"95.920","TLE_LINE1":"1 53483U 22099U   22354.81693975  .00000543  00000-0  46899-4 0  9991","RCS_SIZE":"LARGE","COUNTRY_CODE":"US","APOAPSIS":"563.933","INCLINATION":"97.6568","PERIAPSIS":"562.113","OBJECT_TYPE":"PAYLOAD","OBJECT_NAME":"STARLINK-4401","ELEMENT_SET_NO":"999","ECCENTRICITY":"0.00013110","CLASSIFICATION_TYPE":"U"}];
